{
  "type": "FeatureCollection",
  "features": [
    {
      "type": "Feature",
      "properties": {
        "norad_id": 37846,
        "name": "GSAT0101 (GALILEO-PFM)",
        "group": "galileo",
        "lat": -37.095381215770175,
        "lon": -163.93605384796047,
        "alt_km": 23226.624656579894,
        "timestamp": "2025-12-17T09:00:17.411124+00:00",
        "meta_object_name": "GSAT0101 (GALILEO-PFM)",
        "meta_object_id": "2011-060A",
        "meta_epoch": "2025-12-15T20:00:41.819904",
        "meta_mean_motion": 1.70475823,
        "meta_eccentricity": 0.00030775,
        "meta_inclination": 57.052,
        "meta_ra_of_asc_node": 346.7358,
        "meta_arg_of_pericenter": 316.7426,
        "meta_mean_anomaly": 43.2514,
        "meta_ephemeris_type": 0,
        "meta_classification_type": "U",
        "meta_norad_cat_id": 37846,
        "meta_element_set_no": 999,
        "meta_rev_at_epoch": 8799,
        "meta_bstar": 0,
        "meta_mean_motion_dot": -8.2e-07,
        "meta_mean_motion_ddot": 0,
        "tle_line1": "1 37846U 11060A   25349.83381736 -.00000082  00000+0  00000+0 0  9997",
        "tle_line2": "2 37846  57.0520 346.7358 0003077 316.7426  43.2514  1.70475823 87990"
      },
      "geometry": {
        "type": "Point",
        "coordinates": [
          -163.93605384796047,
          -37.095381215770175
        ]
      }
    },
    {
      "type": "Feature",
      "properties": {
        "norad_id": 37847,
        "name": "GSAT0102 (GALILEO-FM2)",
        "group": "galileo",
        "lat": -57.00381681198705,
        "lon": -100.70791875171697,
        "alt_km": 23216.46634697055,
        "timestamp": "2025-12-17T09:00:17.411147+00:00",
        "meta_object_name": "GSAT0102 (GALILEO-FM2)",
        "meta_object_id": "2011-060B",
        "meta_epoch": "2025-12-16T01:10:38.655264",
        "meta_mean_motion": 1.7047605,
        "meta_eccentricity": 0.00050527,
        "meta_inclination": 57.0527,
        "meta_ra_of_asc_node": 346.7304,
        "meta_arg_of_pericenter": 311.0932,
        "meta_mean_anomaly": 226.4679,
        "meta_ephemeris_type": 0,
        "meta_classification_type": "U",
        "meta_norad_cat_id": 37847,
        "meta_element_set_no": 999,
        "meta_rev_at_epoch": 8800,
        "meta_bstar": 0,
        "meta_mean_motion_dot": -8.2e-07,
        "meta_mean_motion_ddot": 0,
        "tle_line1": "1 37847U 11060B   25350.04905851 -.00000082  00000+0  00000+0 0  9993",
        "tle_line2": "2 37847  57.0527 346.7304 0005052 311.0932 226.4679  1.70476050 88007"
      },
      "geometry": {
        "type": "Point",
        "coordinates": [
          -100.70791875171697,
          -57.00381681198705
        ]
      }
    },
    {
      "type": "Feature",
      "properties": {
        "norad_id": 38857,
        "name": "GSAT0103 (GALILEO-FM3)",
        "group": "galileo",
        "lat": -17.504028070088246,
        "lon": -61.05260184495771,
        "alt_km": 23221.691371335655,
        "timestamp": "2025-12-17T09:00:17.411161+00:00",
        "meta_object_name": "GSAT0103 (GALILEO-FM3)",
        "meta_object_id": "2012-055A",
        "meta_epoch": "2025-12-13T12:39:44.093088",
        "meta_mean_motion": 1.70473367,
        "meta_eccentricity": 0.00026827,
        "meta_inclination": 55.6929,
        "meta_ra_of_asc_node": 106.6448,
        "meta_arg_of_pericenter": 268.8486,
        "meta_mean_anomaly": 91.0883,
        "meta_ephemeris_type": 0,
        "meta_classification_type": "U",
        "meta_norad_cat_id": 38857,
        "meta_element_set_no": 999,
        "meta_rev_at_epoch": 8184,
        "meta_bstar": 0,
        "meta_mean_motion_dot": 1e-08,
        "meta_mean_motion_ddot": 0,
        "tle_line1": "1 38857U 12055A   25347.52759367  .00000001  00000+0  00000+0 0  9998",
        "tle_line2": "2 38857  55.6929 106.6448 0002682 268.8486  91.0883  1.70473367 81846"
      },
      "geometry": {
        "type": "Point",
        "coordinates": [
          -61.05260184495771,
          -17.504028070088246
        ]
      }
    },
    {
      "type": "Feature",
      "properties": {
        "norad_id": 40128,
        "name": "GSAT0201 (GALILEO 5)",
        "group": "galileo",
        "lat": 46.72528351274141,
        "lon": -12.19360778097017,
        "alt_km": 21467.136665645077,
        "timestamp": "2025-12-17T09:00:17.411174+00:00",
        "meta_object_name": "GSAT0201 (GALILEO 5)",
        "meta_object_id": "2014-050A",
        "meta_epoch": "2025-12-14T00:08:14.916480",
        "meta_mean_motion": 1.85519648,
        "meta_eccentricity": 0.16480052,
        "meta_inclination": 49.0753,
        "meta_ra_of_asc_node": 281.012,
        "meta_arg_of_pericenter": 172.3262,
        "meta_mean_anomaly": 190.5827,
        "meta_ephemeris_type": 0,
        "meta_classification_type": "U",
        "meta_norad_cat_id": 40128,
        "meta_element_set_no": 999,
        "meta_rev_at_epoch": 7488,
        "meta_bstar": 0,
        "meta_mean_motion_dot": -9.9e-07,
        "meta_mean_motion_ddot": 0,
        "tle_line1": "1 40128U 14050A   25348.00572820 -.00000099  00000+0  00000+0 0  9998",
        "tle_line2": "2 40128  49.0753 281.0120 1648005 172.3262 190.5827  1.85519648 74882"
      },
      "geometry": {
        "type": "Point",
        "coordinates": [
          -12.19360778097017,
          46.72528351274141
        ]
      }
    },
    {
      "type": "Feature",
      "properties": {
        "norad_id": 40129,
        "name": "GSAT0202 (GALILEO 6)",
        "group": "galileo",
        "lat": -41.61728337917193,
        "lon": -130.3436231642502,
        "alt_km": 23720.487298483957,
        "timestamp": "2025-12-17T09:00:17.411186+00:00",
        "meta_object_name": "GSAT0202 (GALILEO 6)",
        "meta_object_id": "2014-050B",
        "meta_epoch": "2025-12-14T06:17:14.023104",
        "meta_mean_motion": 1.85520414,
        "meta_eccentricity": 0.16487132,
        "meta_inclination": 49.0906,
        "meta_ra_of_asc_node": 280.0852,
        "meta_arg_of_pericenter": 173.0839,
        "meta_mean_anomaly": 189.5459,
        "meta_ephemeris_type": 0,
        "meta_classification_type": "U",
        "meta_norad_cat_id": 40129,
        "meta_element_set_no": 999,
        "meta_rev_at_epoch": 7705,
        "meta_bstar": 0,
        "meta_mean_motion_dot": -9.7e-07,
        "meta_mean_motion_ddot": 0,
        "tle_line1": "1 40129U 14050B   25348.26196786 -.00000097  00000+0  00000+0 0  9998",
        "tle_line2": "2 40129  49.0906 280.0852 1648713 173.0839 189.5459  1.85520414 77052"
      },
      "geometry": {
        "type": "Point",
        "coordinates": [
          -130.3436231642502,
          -41.61728337917193
        ]
      }
    },
    {
      "type": "Feature",
      "properties": {
        "norad_id": 40544,
        "name": "GSAT0203 (GALILEO 7)",
        "group": "galileo",
        "lat": 1.8200972239651174,
        "lon": -12.259481609432411,
        "alt_km": 23221.860313745463,
        "timestamp": "2025-12-17T09:00:17.411197+00:00",
        "meta_object_name": "GSAT0203 (GALILEO 7)",
        "meta_object_id": "2015-017A",
        "meta_epoch": "2025-12-14T10:31:47.473824",
        "meta_mean_motion": 1.70475994,
        "meta_eccentricity": 0.00064885,
        "meta_inclination": 56.8458,
        "meta_ra_of_asc_node": 346.6335,
        "meta_arg_of_pericenter": 272.6107,
        "meta_mean_anomaly": 87.3336,
        "meta_ephemeris_type": 0,
        "meta_classification_type": "U",
        "meta_norad_cat_id": 40544,
        "meta_element_set_no": 999,
        "meta_rev_at_epoch": 6605,
        "meta_bstar": 0,
        "meta_mean_motion_dot": -8.5e-07,
        "meta_mean_motion_ddot": 0,
        "tle_line1": "1 40544U 15017A   25348.43874391 -.00000085  00000+0  00000+0 0  9994",
        "tle_line2": "2 40544  56.8458 346.6335 0006488 272.6107  87.3336  1.70475994 66059"
      },
      "geometry": {
        "type": "Point",
        "coordinates": [
          -12.259481609432411,
          1.8200972239651174
        ]
      }
    },
    {
      "type": "Feature",
      "properties": {
        "norad_id": 40545,
        "name": "GSAT0204 (GALILEO 8)",
        "group": "galileo",
        "lat": -20.958076278559062,
        "lon": -178.93398857314776,
        "alt_km": 23215.479357015436,
        "timestamp": "2025-12-17T09:00:17.411209+00:00",
        "meta_object_name": "GSAT0204 (GALILEO 8)",
        "meta_object_id": "2015-017B",
        "meta_epoch": "2025-12-14T16:39:40.338432",
        "meta_mean_motion": 1.70475755,
        "meta_eccentricity": 0.0006191,
        "meta_inclination": 56.8531,
        "meta_ra_of_asc_node": 346.6443,
        "meta_arg_of_pericenter": 264.523,
        "meta_mean_anomaly": 95.425,
        "meta_ephemeris_type": 0,
        "meta_classification_type": "U",
        "meta_norad_cat_id": 40545,
        "meta_element_set_no": 999,
        "meta_rev_at_epoch": 2910,
        "meta_bstar": 0,
        "meta_mean_motion_dot": -8.5e-07,
        "meta_mean_motion_ddot": 0,
        "tle_line1": "1 40545U 15017B   25348.69421688 -.00000085  00000+0  00000+0 0  9990",
        "tle_line2": "2 40545  56.8531 346.6443 0006191 264.5230  95.4250  1.70475755 29105"
      },
      "geometry": {
        "type": "Point",
        "coordinates": [
          -178.93398857314776,
          -20.958076278559062
        ]
      }
    }
  ]
}